{"type":"FeatureCollection","features":[{"type":"Feature","properties":{"name":"Embu","code":14},"geometry":{"type":"Polygon","coordinates":[[[37.48413611748315,-0.591443617679263],[37.47351600048318,-0.558667738679221],[37.450505746483195,-0.548230726679267],[37.44672156648317,-0.532666761679254],[37.42749549248315,-0.51057203567922],[37.42529822648316,-0.423963148679266],[37.30853797248317,-0.15205152767925],[37.55170203548317,-0.361768324679249],[37.5855155114832,-0.373365004679217],[37.5999198084832,-0.38587721167926],[37.629521859483184,-0.392346937679238],[37.660710824483196,-0.423963148679266],[37.68231726948317,-0.430371839679256],[37.69409705448316,-0.441480238679221],[37.72070838248316,-0.45283277767925],[37.78552771848319,-0.449658949679249],[37.8655448084832,-0.385755140679239],[37.8740897304832,-0.353162367679263],[37.88690711348317,-0.345471937679238],[37.89453650748316,-0.354261000679233],[37.89014197648316,-0.366529066679223],[37.896733773483156,-0.373731214679256],[37.89209510148316,-0.396253187679238],[37.912724984483184,-0.416638929679268],[37.922307504483165,-0.41767652767925],[37.92432166448315,-0.428662855679252],[37.936528695483155,-0.430554945679264],[37.8831229334832,-0.537976820679264],[37.8884940274832,-0.562268812679238],[37.884099496483195,-0.585156996679248],[37.9229178554832,-0.627881605679252],[37.89429236748315,-0.649060804679268],[37.89594031648317,-0.683545668679246],[37.903508675483174,-0.690747816679223],[37.899541390483186,-0.707349379679217],[37.913091195483155,-0.713574964679256],[37.91650916448315,-0.731336195679264],[37.91034461348317,-0.749463636679254],[37.89233924248315,-0.770032484679237],[37.89331580448316,-0.781262953679234],[37.881108773483156,-0.793653089679256],[37.88330603948315,-0.809766371679248],[37.835088265483186,-0.815930922679231],[37.818913949483196,-0.807263929679268],[37.809697640483186,-0.816663343679241],[37.806890023483156,-0.805249769679224],[37.788945687483185,-0.824231703679234],[37.7625174644832,-0.826245863679221],[37.74451209348319,-0.781629164679262],[37.73389197648316,-0.77705152767925],[37.706914437483185,-0.784131605679252],[37.69312049248315,-0.797071058679253],[37.681890023483156,-0.798963148679266],[37.681706918483194,-0.823865492679263],[37.66528846148315,-0.848157484679237],[37.629521859483184,-0.841870863679221],[37.627507699483196,-0.853345472679225],[37.591496957483166,-0.864270765679239],[37.58734656648317,-0.88056715267925],[37.56512976948317,-0.882764418679246],[37.561528695483155,-0.87775953567922],[37.54633094148317,-0.885449964679256],[37.5335135584832,-0.89924391067922],[37.53272010148316,-0.914563734679237],[37.521916879483165,-0.918042738679221],[37.51630164448317,-0.905164320679264],[37.49609900748316,-0.904676039679262],[37.4780936364832,-0.893750746679248],[37.47473670348318,-0.877942640679239],[37.44794226948317,-0.870862562679238],[37.4429373864832,-0.863477308679253],[37.415898812483185,-0.862256605679252],[37.4129080894832,-0.850965101679267],[37.38013221148315,-0.857556898679266],[37.36414100048318,-0.845166761679254],[37.32709266048317,-0.843335707679219],[37.306523812483185,-0.814282972679225],[37.30713416448315,-0.803968031679235],[37.28833533648315,-0.785230238679221],[37.2678885584832,-0.787366468679241],[37.27696255548317,-0.757083521679251],[37.316106332483166,-0.751538832679219],[37.327336800483174,-0.767163832679219],[37.349492562483185,-0.774365980679252],[37.36133338248316,-0.764539320679264],[37.4216971524832,-0.749768812679238],[37.4448905114832,-0.733045179679268],[37.463140023483156,-0.736280043679246],[37.4749198084832,-0.727552015679239],[37.49609900748316,-0.731641371679248],[37.4793143394832,-0.714978773679266],[37.47528601948317,-0.68543775767927],[37.47351600048318,-0.650769789679262],[37.4881034024832,-0.620435316679223],[37.4783377774832,-0.601941664679262],[37.48413611748315,-0.591443617679263]]]}},{"type":"Feature","properties":{"name":"Kajiado","code":34},"geometry":{"type":"Polygon","coordinates":[[[36.6697440274832,-1.32606275767927],[36.67969275748316,-1.32893141067922],[36.69153357848318,-1.35267408667926],[36.7027030114832,-1.352246839679256],[36.75049353948315,-1.384534437679238],[36.80310584348319,-1.38856275767927],[36.8198905114832,-1.381543714679256],[36.844304574483196,-1.387647230679252],[36.87109900748316,-1.40705641067922],[36.89429236748315,-1.411145765679239],[36.87891150748316,-1.477979261679254],[36.88611365648318,-1.486829359679237],[36.923894418483194,-1.459180433679253],[36.941289437483185,-1.455152113679221],[36.977544320483155,-1.478833754679274],[36.95789100048318,-1.544751722679225],[36.967900765483186,-1.556165297679231],[36.97870398848317,-1.556043226679267],[36.996709359483184,-1.583448011679254],[36.991521371483195,-1.587354261679254],[37.00012732848318,-1.598279554679268],[37.00793982848318,-1.596082289679262],[37.1131034024832,-1.736157972679225],[37.129521859483184,-1.744336683679253],[37.14252234748317,-1.738050062679238],[37.149541390483186,-1.742871839679256],[37.149541390483186,-1.761182386679254],[37.15869666448315,-1.767163832679219],[37.152898324483196,-1.777539808679253],[37.16089392948316,-1.780957777679251],[37.14270545348318,-1.813855726679267],[37.148686898483156,-1.83283766067922],[37.14270545348318,-1.840039808679253],[37.15588904648319,-1.847058851679267],[37.163091195483155,-1.859876234679237],[37.161138070483155,-1.884534437679238],[37.154912484483184,-1.887158949679249],[37.186528695483155,-1.933972914679262],[37.23608924248315,-1.937451918679247],[37.25732947648316,-1.959729750679233],[37.265691293483194,-1.960767347679225],[37.281316293483194,-1.996472914679262],[37.31372596148315,-2.008679945679265],[37.36273719148317,-2.014966566679224],[37.365300668483194,-2.024243910679221],[37.38232947648316,-2.02497633267922],[37.464726937483185,-2.081250746679249],[37.463140023483156,-2.087781507679271],[37.47650672248317,-2.093274672679232],[37.4793143394832,-2.086255629679275],[37.532536996483195,-2.107556898679267],[37.54388953548317,-2.116956312679239],[37.545537484483184,-2.127271254679275],[37.56372596148315,-2.128736097679226],[37.5955252774832,-2.156140882679271],[37.621526254483165,-2.163343031679236],[37.66553260148316,-2.157849867679264],[37.69812537548318,-2.166638929679269],[37.70789100048318,-2.183545668679248],[37.72473670348318,-2.192151625679234],[37.70630408648315,-2.197461683679254],[37.6760916834832,-2.230969984679238],[37.678716195483155,-2.266980726679268],[37.668523324483196,-2.291150648679267],[37.65833045348318,-2.289441664679263],[37.6463065274832,-2.301160414679263],[37.63373328548317,-2.29926832467925],[37.62354041448315,-2.306165297679232],[37.613530648483156,-2.300977308679254],[37.607121957483166,-2.311170179679269],[37.59729529648319,-2.313855726679268],[37.849492562483185,-2.605481703679235],[37.87689734748317,-2.658460218679242],[37.89270545348318,-2.676465589679257],[37.901494515483186,-2.702649672679232],[37.921941293483194,-2.707044203679235],[37.9307303554832,-2.725476820679265],[37.926946175483174,-2.75044019967925],[37.937932504483165,-2.773267347679226],[37.93573523848317,-2.785962660679221],[37.918523324483196,-2.870862562679239],[37.895085824483196,-2.888135511679256],[37.871526254483165,-3.07966383267922],[37.857305062483185,-3.081739027679252],[37.85474158648315,-3.089368422679232],[37.85010291348316,-3.184339125679234],[37.8342948084832,-3.189160902679252],[37.8054862144832,-3.170667250679234],[37.796086800483174,-3.17536695767922],[37.692693246483195,-3.177564222679226],[37.672490609483184,-3.061231214679257],[37.51209021848319,-2.95466383267922],[36.00092078548317,-2.105481703679235],[36.0015311364832,-2.084241468679242],[36.02728797248317,-2.084546644679225],[36.022099984483184,-2.032178480679253],[36.0366873864832,-2.006665785679221],[36.04291297248317,-1.938672621679248],[36.032903207483166,-1.915662367679263],[36.043523324483196,-1.907849867679263],[36.0322928554832,-1.902844984679237],[36.02771521848319,-1.890637953679234],[36.0347342614832,-1.890576918679247],[36.038091195483155,-1.879346449679249],[36.0444998864832,-1.880261976679267],[36.05090857848318,-1.870374281679235],[36.0491385584832,-1.842176039679262],[36.03973914448317,-1.824170668679247],[36.029912484483184,-1.824536879679274],[36.02710486748315,-1.809644300679227],[36.01733924248315,-1.80653150767927],[36.0291190274832,-1.781751234679237],[36.0213065274832,-1.777173597679225],[36.036321175483174,-1.761365492679263],[36.03333045348318,-1.754651625679233],[36.04370642948316,-1.730664808679253],[36.04932166448315,-1.731336195679264],[36.04388953548317,-1.710950453679234],[36.0479178554832,-1.705274183679253],[36.056523812483185,-1.708753187679238],[36.0654959804832,-1.697583754679274],[36.04834510148316,-1.650647718679241],[36.05908728948315,-1.625073988679221],[36.05432654648319,-1.618848402679251],[36.06372596148315,-1.616834242679263],[36.0867362144832,-1.574170668679247],[36.06049109748317,-1.501660902679251],[36.04968787548318,-1.492383558679253],[36.348088754483165,-1.175366957679219],[36.33630896848319,-1.04768141067922],[36.49390174248315,-1.121533949679249],[36.53711463248316,-1.154859144679224],[36.51331092148319,-1.241956312679238],[36.49231482848318,-1.269483168679247],[36.66089392948316,-1.303479750679233],[36.664128793483194,-1.319654066679223],[36.673528207483166,-1.324353773679266],[36.6697440274832,-1.32606275767927]]]}},{"type":"Feature","properties":{"name":"Kiambu","code":22},"geometry":{"type":"Polygon","coordinates":[[[36.68677010748319,-0.764234238679253],[36.75189734748317,-0.833081800679227],[36.77490760148316,-0.834851820679264],[36.839543832483166,-0.877637464679256],[36.887700570483155,-0.896863539679262],[36.895085824483196,-0.911878187679238],[36.90833045348318,-0.915052015679239],[36.9241385584832,-0.936170179679268],[36.957097543483194,-0.958448011679254],[36.966496957483166,-0.974439222679225],[36.982488168483194,-0.979932386679254],[37.02393103948315,-1.012769300679227],[37.03369666448315,-1.029370863679221],[37.05151892948316,-1.034131605679252],[37.0613455894832,-1.02815016067922],[37.06268836348317,-1.013257582679219],[37.06909705448316,-1.026074964679256],[37.10809851948317,-1.036573011679254],[37.12494422248317,-1.053357679679268],[37.133916390483186,-1.048841078679234],[37.154912484483184,-1.053235609679237],[37.173528207483166,-1.044568617679263],[37.17810584348319,-1.034558851679267],[37.19232703548317,-1.04285963267927],[37.214543832483166,-1.034253675679227],[37.23193885148316,-1.018872816679223],[37.244695199483196,-1.025464613679221],[37.265691293483194,-1.018872816679223],[37.311711800483174,-1.067456800679227],[37.362493050483174,-1.095166761679254],[37.34314490648318,-1.118665297679231],[37.29932166448315,-1.074353773679266],[37.27930213248316,-1.067578871679248],[37.24994422248317,-1.079541761679254],[37.2127127774832,-1.080152113679221],[37.176335824483196,-1.115979750679233],[37.1873221524832,-1.138745863679221],[37.182927621483195,-1.165967543679247],[37.1572928554832,-1.194837172679231],[37.154546273483156,-1.22254713267927],[37.12354041448315,-1.234876234679237],[37.1065116054832,-1.260266859679237],[37.08752967148319,-1.248975355679252],[37.0955252774832,-1.244763929679268],[37.091496957483166,-1.237866957679219],[37.08093787548318,-1.237256605679252],[37.061711800483174,-1.206372816679223],[37.038091195483155,-1.213269789679262],[37.00830603948315,-1.236035902679251],[36.988713754483165,-1.224073011679254],[36.95850135148316,-1.228833754679274],[36.922124398483156,-1.217176039679262],[36.915898812483185,-1.204663832679219],[36.9417166834832,-1.174329359679237],[36.9194998864832,-1.162183363679221],[36.90210486748315,-1.160535414679262],[36.889104379483165,-1.174329359679237],[36.896916879483165,-1.191663343679241],[36.87854529648319,-1.196363050679227],[36.863896859483184,-1.190442640679239],[36.85010291448315,-1.213147718679241],[36.833318246483195,-1.209058363679221],[36.83472205448316,-1.214856703679234],[36.790898812483185,-1.191541273679266],[36.77893592148319,-1.226758558679253],[36.75653601948317,-1.220349867679263],[36.7459159024832,-1.23713453567922],[36.730901254483165,-1.234754164679262],[36.71869422248317,-1.262647230679252],[36.69672156648317,-1.260633070679264],[36.681706918483194,-1.298047621679248],[36.6663260584832,-1.313672621679248],[36.66089392948316,-1.303479750679233],[36.49231482848318,-1.269544203679234],[36.51514197648316,-1.242566664679262],[36.5457205894832,-1.126355726679267],[36.572331918483194,-1.099744398679266],[36.59174109748317,-1.068067152679251],[36.5886893394832,-1.043958265679239],[36.59729529648319,-0.985364515679239],[36.5886893394832,-0.979383070679264],[36.58130408648315,-0.949658949679249],[36.5623221524832,-0.939038832679219],[36.5733084804832,-0.932141859679237],[36.554936898483156,-0.926648695679264],[36.5711112144832,-0.910230238679221],[36.566106332483166,-0.903760511679254],[36.59033728948315,-0.88856275767927],[36.60168982848318,-0.863843519679224],[36.589543832483166,-0.82923658667926],[36.622930062483185,-0.831372816679223],[36.673528207483166,-0.77845533667926],[36.64648963248316,-0.773084242679263],[36.6507010584832,-0.768445570679264],[36.67334510148316,-0.759961683679253],[36.68677010748319,-0.764234238679253]]]}},{"type":"Feature","properties":{"name":"Kirinyaga","code":20},"geometry":{"type":"Polygon","coordinates":[[[37.423894418483194,-0.441968519679224],[37.42749549248315,-0.51057203567922],[37.44531775748316,-0.530652601679267],[37.44812537548318,-0.545362074679249],[37.47229529648319,-0.558545668679246],[37.48511267948316,-0.582166273679266],[37.479131234483184,-0.602857191679223],[37.48828650748316,-0.617749769679224],[37.47351600048318,-0.650769789679262],[37.47510291448315,-0.68525465267925],[37.4793143394832,-0.714978773679266],[37.49609900748316,-0.731763441679223],[37.47333289448317,-0.727063734679237],[37.463323129483165,-0.735242445679264],[37.4448905114832,-0.733045179679268],[37.4216971524832,-0.749768812679238],[37.36133338248316,-0.764539320679264],[37.35010291448315,-0.774365980679252],[37.324101937483185,-0.764844496679248],[37.31531287548318,-0.750745375679233],[37.2769217614832,-0.757031996679248],[37.2678885584832,-0.787366468679241],[37.25671912548318,-0.758863050679227],[37.26190711348317,-0.75275953567922],[37.268743050483174,-0.754651625679233],[37.2437186364832,-0.705335218679241],[37.237493050483174,-0.670240004679217],[37.214543832483166,-0.690076429679268],[37.20129920348318,-0.665052015679239],[37.1807303554832,-0.66767652767925],[37.170537484483184,-0.649182875679233],[37.168422273483195,-0.637121706679241],[37.17450476948317,-0.632764418679246],[37.17969275748316,-0.606153089679256],[37.161321175483174,-0.593762953679234],[37.1453299644832,-0.570630629679217],[37.15033484748317,-0.556165297679231],[37.1463065274832,-0.528577406679235],[37.16229773848317,-0.524365980679252],[37.171086800483174,-0.514356214679256],[37.16333533648315,-0.494763929679268],[37.1773123864832,-0.482434828679234],[37.17670203548317,-0.443433363679221],[37.200322640483186,-0.438855726679267],[37.30853797248317,-0.15205152767925],[37.42529822648316,-0.423963148679266],[37.423894418483194,-0.441968519679224]]]}},{"type":"Feature","properties":{"name":"Kitui","code":15},"geometry":{"type":"Polygon","coordinates":[[[38.32831336348317,-0.070081312679238],[38.34692908648321,-0.06525953567922],[38.383916390483186,-0.089673597679225],[38.3928885584832,-0.076673109679237],[38.4194998864832,-0.072766859679237],[38.806890023483156,-0.728772718679241],[38.96234656648317,-1.05457838267927],[38.999333871483195,-1.681653578679234],[38.95972205448316,-1.704358656679235],[39.014104379483165,-1.916150648679266],[38.7966971524832,-2.343457777679252],[38.7847342614832,-2.356946547679232],[38.73950721148321,-2.366040785679221],[38.73389197648316,-2.38044508267922],[38.6961112144832,-2.411878187679239],[38.661138070483155,-2.42036207467925],[38.624700082483166,-2.413831312679239],[39.07611609748317,-3.043164808679254],[39.0466971524832,-3.033582289679263],[39.045537484483184,-3.024549086679262],[39.025090707483166,-3.023450453679235],[38.99213172248317,-3.028455336679262],[38.9749198084832,-3.041944105679253],[38.93750525748316,-3.036939222679226],[38.91748572648316,-3.045178968679242],[38.89453650748316,-3.040235121679249],[38.863713754483165,-3.059461195679265],[38.847905648483156,-3.06294019967925],[38.8421073084832,-3.056043226679268],[38.806523812483185,-3.070935804679269],[38.798711312483185,-3.06544264067924],[38.8101248864832,-3.056043226679268],[38.77411414448317,-3.045667250679234],[38.757512582483166,-3.048963148679267],[38.70892859748317,-3.034375746679249],[38.665715707483166,-3.041272718679242],[38.6428885584832,-3.014966566679224],[38.61011267948316,-3.009168226679268],[38.60889197648316,-2.997449476679268],[38.59393836348317,-3.000867445679265],[38.58350135148316,-2.989636976679268],[38.56213904648319,-2.988843519679225],[38.539311898483156,-2.976331312679239],[38.51892615648318,-2.976880629679275],[38.49292517948316,-2.956250746679249],[38.487493050483174,-2.938672621679249],[38.47693396848319,-2.938672621679249],[38.4617362144832,-2.90083082467925],[38.45129920348318,-2.894544203679235],[38.454106820483155,-2.882459242679264],[38.443913949483196,-2.879163343679242],[38.445928109483184,-2.871045668679248],[38.428899300483174,-2.850843031679236],[38.4273123864832,-2.821729261679256],[38.419133675483174,-2.813977797679232],[38.43250037548318,-2.791761000679234],[38.426335824483196,-2.774365980679253],[38.382695687483185,-2.666150648679267],[38.36890174248315,-2.653638441679224],[38.34833289448317,-2.592847425679228],[38.33911658648321,-2.585340101679268],[38.33270789448317,-2.56403883267922],[38.338506234483184,-2.558362562679239],[38.32312537548318,-2.549756605679253],[38.3132987144832,-2.505261976679268],[38.28992225048318,-2.486463148679267],[38.27411414448317,-2.425977308679254],[38.2537284024832,-2.423169691679224],[38.224309457483166,-2.40192945767922],[38.21094275748316,-2.357251722679226],[38.1983084804832,-2.355176527679252],[38.189702523483156,-2.342969496679249],[38.14911414448317,-2.324475843679242],[38.12769080448316,-2.324170668679248],[38.120122445483155,-2.317761976679268],[38.11011267948316,-2.302075941679224],[38.1121268394832,-2.289929945679265],[38.07690955448316,-2.263562757679271],[38.064885629483165,-2.224744398679267],[38.070745004483165,-2.216565687679239],[38.06030799248315,-2.207959730679253],[38.048894418483194,-2.170972425679228],[38.029546273483156,-2.164563734679238],[38.01971961348317,-2.149365980679253],[37.966130746483195,-2.167981703679235],[37.9639334804832,-2.145581800679228],[37.95471717148319,-2.135938246679249],[37.96094275748316,-2.078382093679242],[37.95593787548318,-2.051282484679238],[37.9495291834832,-2.036939222679226],[37.94031287548318,-2.035352308679254],[37.9417166834832,-2.014966566679224],[37.92572547248317,-1.987256605679252],[37.910710824483196,-1.93635328567922],[37.918523324483196,-1.904737074679249],[37.906499398483156,-1.904431898679266],[37.90210486748315,-1.865979750679233],[37.88611365648318,-1.854383070679264],[37.893743050483174,-1.841931898679266],[37.84912635148316,-1.799878675679227],[37.840093148483156,-1.781568129679274],[37.84271766048317,-1.769666273679266],[37.8530936364832,-1.768140394679224],[37.85614539448317,-1.755872328679234],[37.84534217148319,-1.714063246679248],[37.837102425483174,-1.71174391067922],[37.8377127774832,-1.693433363679221],[37.830327523483156,-1.683850843679241],[37.82190467148319,-1.683179457679219],[37.822331918483194,-1.66877516067922],[37.80249549248315,-1.650159437679238],[37.803716195483155,-1.64143141067922],[37.773137582483166,-1.586865980679252],[37.76209021848319,-1.579846937679238],[37.7503104334832,-1.556348402679251],[37.73669959348319,-1.548535902679251],[37.71411658648315,-1.511975843679241],[37.70251990648318,-1.509961683679253],[37.695928109483184,-1.500379164679262],[37.70789100048318,-1.49134596167926],[37.73431922248317,-1.498365004679274],[37.774724496483195,-1.488233168679247],[37.78369666448315,-1.471265394679224],[37.817510140483186,-1.449170668679247],[37.805120004483165,-1.396863539679262],[37.79968787548318,-1.397534925679227],[37.77612830448316,-1.362683851679267],[37.74890662548318,-1.359571058679253],[37.734929574483196,-1.34364088267927],[37.689702523483156,-1.242932875679233],[37.657903207483166,-1.209729750679233],[37.624333871483195,-1.14954908667926],[37.60632850048318,-1.144483168679247],[37.59851600048318,-1.133374769679224],[37.596318734483184,-1.089246351679267],[37.73431922248317,-1.082532484679237],[37.794133675483174,-1.12806471167926],[37.80249549248315,-1.118848402679251],[37.822331918483194,-1.073133070679264],[37.830693734483184,-1.071363050679227],[37.847539437483185,-1.047254164679262],[37.84729529648319,-0.99775465267925],[37.8674979334832,-0.980054457679219],[37.863896859483184,-0.971265394679224],[37.84570838248316,-0.966565687679238],[37.8530936364832,-0.963147718679241],[37.847905648483156,-0.948743422679231],[37.8530936364832,-0.940381605679252],[37.83789588248316,-0.912854750679233],[37.8198905114832,-0.902356703679234],[37.822331918483194,-0.882581312679238],[37.848088754483165,-0.835340101679267],[37.846135629483165,-0.813733656679235],[37.88330603948315,-0.809766371679248],[37.88489295348318,-0.784375746679248],[37.89270545348318,-0.782483656679235],[37.89209510148316,-0.770032484679237],[37.91034461348317,-0.749463636679254],[37.91650916448315,-0.731336195679264],[37.911138070483155,-0.710340101679267],[37.899724496483195,-0.707166273679266],[37.9041190274832,-0.692334730679252],[37.89612342148319,-0.682630140679239],[37.893743050483174,-0.653760511679254],[37.9229178554832,-0.62775953567922],[37.884099496483195,-0.585156996679248],[37.8884940274832,-0.561963636679254],[37.8831229334832,-0.537976820679264],[37.93573523848317,-0.432080824679249],[37.95190955448316,-0.427869398679266],[37.96552039448317,-0.413281996679248],[37.97473670348318,-0.379956800679227],[37.969304574483196,-0.366162855679252],[37.97974158648315,-0.35627516067922],[37.973088754483165,-0.344434339679256],[37.98633338248316,-0.32587965267925],[37.980535043483194,-0.314282972679225],[37.9971366054832,-0.27033766067922],[38.02411414448317,-0.269544203679234],[38.0491385584832,-0.278333265679239],[38.114934457483166,-0.279065687679238],[38.1365409024832,-0.259046156679235],[38.14270545348318,-0.244641859679237],[38.164495004483165,-0.23518141067922],[38.183293832483166,-0.192334730679252],[38.1873221524832,-0.155347425679227],[38.20453406648317,-0.148267347679225],[38.22089148848317,-0.10926588267927],[38.24731971148321,-0.091260511679254],[38.2713065274832,-0.098950941679223],[38.2869315274832,-0.089368422679231],[38.3101248864832,-0.056653578679234],[38.32831336348317,-0.070081312679238]]]}},{"type":"Feature","properties":{"name":"Machakos","code":16},"geometry":{"type":"Polygon","coordinates":[[[37.74462306648319,-0.781862207679242],[37.75812293448319,-0.824964125679233],[37.788945687483185,-0.824231703679234],[37.806890023483156,-0.805249769679224],[37.809697640483186,-0.816663343679241],[37.818913949483196,-0.807263929679268],[37.835088265483186,-0.815930922679231],[37.8455252774832,-0.814038832679219],[37.848088754483165,-0.835340101679267],[37.830510629483165,-0.860059339679256],[37.81909705448316,-0.898877699679249],[37.83789588248316,-0.912854750679233],[37.8530936364832,-0.940381605679252],[37.847905648483156,-0.948743422679231],[37.8530936364832,-0.963147718679241],[37.84570838248316,-0.966565687679238],[37.86731482848318,-0.975537855679252],[37.8655448084832,-0.983960707679219],[37.84729529648319,-0.99775465267925],[37.846135629483165,-1.050061781679235],[37.830693734483184,-1.071363050679227],[37.822331918483194,-1.073133070679264],[37.80249549248315,-1.118848402679251],[37.792119515483186,-1.125684339679256],[37.73431922248317,-1.082532484679237],[37.5955252774832,-1.088880140679239],[37.59851600048318,-1.133374769679224],[37.60632850048318,-1.144483168679247],[37.6253104334832,-1.150464613679221],[37.657536996483195,-1.209668714679256],[37.68890906648317,-1.241834242679263],[37.7327323084832,-1.342481214679256],[37.74548865648318,-1.358472425679227],[37.77612830448316,-1.362683851679267],[37.79968787548318,-1.397534925679227],[37.805120004483165,-1.396863539679262],[37.81970740648318,-1.44837721167926],[37.78369666448315,-1.471265394679224],[37.774724496483195,-1.488233168679247],[37.73431922248317,-1.498365004679274],[37.70789100048318,-1.49134596167926],[37.69531775748316,-1.499463636679254],[37.70251990648318,-1.509961683679253],[37.71411658648315,-1.511975843679241],[37.73669959348319,-1.548535902679251],[37.7503104334832,-1.556348402679251],[37.75354529648319,-1.568738539679262],[37.7381034024832,-1.576673109679237],[37.7359061364832,-1.594068129679274],[37.72211219148317,-1.609448988679221],[37.712102425483174,-1.606641371679248],[37.70154334348319,-1.586438734679237],[37.68530799248315,-1.587659437679238],[37.6882987144832,-1.620069105679252],[37.66150428148318,-1.645581800679227],[37.645085824483196,-1.615979750679233],[37.64130164448317,-1.589063246679248],[37.632512582483166,-1.591748793679247],[37.61914588248316,-1.568982679679268],[37.602544320483155,-1.563977797679231],[37.598088754483165,-1.554334242679263],[37.57513953548317,-1.566968519679224],[37.57654334348319,-1.560742933679253],[37.5589041834832,-1.560132582679219],[37.56250525748316,-1.555432875679233],[37.5523123864832,-1.550855238679221],[37.55170203548317,-1.53986891067922],[37.523503793483194,-1.54017408667926],[37.51752234748317,-1.529065687679238],[37.50513221148315,-1.529431898679266],[37.487309945483155,-1.517957289679262],[37.466130746483195,-1.519971449679249],[37.4363455894832,-1.533765394679224],[37.379338754483165,-1.522046644679224],[37.3355155114832,-1.562329847679225],[37.3631034024832,-1.591138441679223],[37.4129080894832,-1.690442640679239],[37.37549353948315,-1.706983168679247],[37.312932504483165,-1.702466566679223],[37.28870154648319,-1.713941175679227],[37.28992225048318,-1.700879652679251],[37.265691293483194,-1.682630140679239],[37.27271033648315,-1.670545179679268],[37.253118050483174,-1.637281019679224],[37.25189734748317,-1.594373304679268],[37.232488168483194,-1.591382582679219],[37.17572547248317,-1.619336683679253],[37.192510140483186,-1.655164320679264],[37.197331918483194,-1.722364027679251],[37.15588904648319,-1.779859144679224],[37.15869666448315,-1.767163832679219],[37.14929725048318,-1.76087721167926],[37.14893103948315,-1.741468031679235],[37.14252234748317,-1.738050062679238],[37.13293982848318,-1.74494703567922],[37.1131034024832,-1.736157972679225],[37.00793982848318,-1.596082289679262],[37.00012732848318,-1.598279554679268],[36.991521371483195,-1.587354261679254],[36.996709359483184,-1.583448011679254],[36.980535043483194,-1.559156019679224],[36.9592948084832,-1.546277601679267],[36.977544320483155,-1.478833754679274],[36.94470740648318,-1.455274183679253],[36.923894418483194,-1.459180433679253],[36.8862967614832,-1.486768324679249],[36.87891150748316,-1.477979261679254],[36.891728890483186,-1.41517408667926],[36.961919320483155,-1.44447096167926],[36.942693246483195,-1.404065687679238],[36.923894418483194,-1.393933851679267],[36.9072928554832,-1.363355238679221],[36.93451453548317,-1.338758070679264],[36.96692420348318,-1.353833754679274],[36.98431922248317,-1.314832289679262],[36.974492562483185,-1.289563734679237],[36.99548865648318,-1.281446058679253],[37.00269080448316,-1.300733168679247],[37.026494515483186,-1.291944105679252],[37.07611609748317,-1.304273207679219],[37.07690955448316,-1.28626783667926],[37.10388709348319,-1.271680433679253],[37.1030936364832,-1.261182386679254],[37.11011267948316,-1.259168226679267],[37.11011267948316,-1.248548109679237],[37.1199393394832,-1.247266371679248],[37.123113168483194,-1.234937269679224],[37.154546273483156,-1.22254713267927],[37.1572928554832,-1.194837172679231],[37.182927621483195,-1.165967543679247],[37.1873221524832,-1.138745863679221],[37.176335824483196,-1.115979750679233],[37.2127127774832,-1.080152113679221],[37.251286996483195,-1.078748304679268],[37.26453162548318,-1.069531996679248],[37.28192664448317,-1.067639906679235],[37.29932166448315,-1.074353773679266],[37.34393836348317,-1.11994703567922],[37.38794471148315,-1.06043775767927],[37.42133094148317,-1.035535414679262],[37.40674353948315,-1.01447828567922],[37.36273719148317,-0.990064222679225],[37.3389334804832,-0.987683851679267],[37.33350135148316,-0.978833754679274],[37.3467459804832,-0.979077894679224],[37.366521371483195,-0.965283949679249],[37.355901254483165,-0.949048597679225],[37.3433280114832,-0.964063246679248],[37.32971717148319,-0.948865492679263],[37.31732703548317,-0.949353773679266],[37.3154959804832,-0.94325025767927],[37.325505746483195,-0.935376722679225],[37.318913949483196,-0.920972425679227],[37.28210975048318,-0.89814527767925],[37.253118050483174,-0.863660414679262],[37.22650672248317,-0.854566175679227],[37.23334266048317,-0.84065016067922],[37.259099496483195,-0.839368422679231],[37.2679170354832,-0.787412605679267],[37.28833533648315,-0.785230238679221],[37.30713416448315,-0.803968031679235],[37.306523812483185,-0.814282972679225],[37.32709266048317,-0.843335707679219],[37.3631034024832,-0.845471937679238],[37.38013221148315,-0.857556898679266],[37.4129080894832,-0.850965101679267],[37.415898812483185,-0.862256605679252],[37.4429373864832,-0.863477308679253],[37.44794226948317,-0.870862562679238],[37.47473670348318,-0.877942640679239],[37.47870398848317,-0.89564283667926],[37.49609900748316,-0.904676039679262],[37.51630164448317,-0.905164320679264],[37.52148963248316,-0.918164808679253],[37.5347342614832,-0.915052015679239],[37.5335135584832,-0.89924391067922],[37.54511023848317,-0.886182386679254],[37.561528695483155,-0.87775953567922],[37.56512976948317,-0.882764418679246],[37.58734656648317,-0.88056715267925],[37.591496957483166,-0.864270765679239],[37.627507699483196,-0.853345472679225],[37.629521859483184,-0.841870863679221],[37.66528846148315,-0.848157484679237],[37.681706918483194,-0.823865492679263],[37.681890023483156,-0.798963148679266],[37.69312049248315,-0.797071058679253],[37.702336800483174,-0.785840589679256],[37.73389197648316,-0.77705152767925],[37.74462306648319,-0.781862207679242]]]}},{"type":"Feature","properties":{"name":"Makueni","code":17},"geometry":{"type":"Polygon","coordinates":[[[37.487309945483155,-1.517957289679262],[37.50513221148315,-1.529431898679266],[37.51489783648315,-1.527783949679249],[37.523503793483194,-1.54017408667926],[37.551946175483174,-1.54017408667926],[37.5523123864832,-1.550855238679221],[37.562932504483165,-1.553662855679252],[37.556706918483194,-1.560254652679251],[37.57654334348319,-1.560742933679253],[37.579289925483174,-1.569348890679239],[37.59833289448317,-1.554334242679263],[37.60352088248316,-1.563855726679267],[37.61932898848317,-1.56916578567922],[37.6297049644832,-1.589429457679219],[37.64130164448317,-1.589063246679248],[37.645085824483196,-1.615979750679233],[37.66211463248316,-1.646680433679253],[37.68890906648317,-1.618970472679225],[37.68549109748317,-1.587964613679221],[37.70154334348319,-1.586438734679237],[37.717900765483186,-1.610059339679256],[37.729497445483155,-1.604566175679227],[37.7359061364832,-1.592664320679264],[37.733525765483186,-1.583753187679238],[37.74731971148315,-1.571240980679252],[37.75732947648316,-1.571179945679264],[37.773320687483185,-1.586865980679252],[37.8054862144832,-1.654676039679262],[37.82172156648317,-1.667737562679238],[37.82190467148319,-1.683179457679219],[37.83789588248316,-1.692945082679219],[37.83594275748316,-1.711072523679266],[37.84534217148319,-1.713941175679227],[37.85614539448317,-1.755872328679234],[37.8530936364832,-1.768140394679224],[37.84314490648318,-1.769544203679234],[37.8386893394832,-1.781934339679256],[37.84912635148316,-1.79993971167926],[37.893743050483174,-1.842359144679224],[37.88709021848319,-1.856763441679223],[37.90033484748317,-1.863477308679253],[37.906499398483156,-1.903333265679239],[37.919133675483174,-1.906079847679225],[37.910710824483196,-1.936475355679252],[37.930303109483184,-1.998670179679268],[37.9417166834832,-2.013745863679223],[37.94092322648316,-2.03614576567924],[37.95111609748317,-2.038953382679271],[37.9561209804832,-2.051282484679238],[37.96094275748316,-2.07716139067924],[37.95453406648317,-2.134839613679223],[37.96429969148317,-2.148572523679267],[37.9658866054832,-2.167859632679271],[38.01971961348317,-2.149365980679253],[38.029546273483156,-2.164563734679238],[38.048894418483194,-2.170972425679228],[38.06030799248315,-2.207959730679253],[38.07050086348317,-2.216565687679239],[38.064885629483165,-2.224744398679267],[38.076726449483196,-2.263562757679271],[38.1121268394832,-2.289868910679221],[38.11011267948316,-2.302075941679224],[38.11713172248317,-2.314954359679238],[38.12769080448316,-2.324170668679248],[38.1453299644832,-2.323072035679221],[38.18713904648319,-2.34138258267922],[38.19873572648316,-2.355542738679223],[38.21094275748316,-2.357678968679242],[38.222539437483185,-2.399854261679256],[38.25092078548317,-2.42146070767922],[38.27393103948315,-2.425855238679223],[38.28992225048318,-2.486463148679267],[38.31372596148321,-2.506665785679221],[38.32294226948317,-2.549329359679238],[38.338506234483184,-2.558667738679223],[38.33270789448317,-2.56403883267922],[38.34070350048318,-2.588574964679257],[38.34833289448317,-2.593579847679226],[38.3674979334832,-2.651563246679249],[38.38171912548318,-2.664136488679223],[38.43231726948317,-2.788770277679252],[38.419133675483174,-2.813672621679249],[38.42749549248315,-2.822461683679254],[38.430303109483184,-2.854749281679236],[38.439885629483165,-2.859571058679254],[38.4448905114832,-2.88184889067924],[38.455327523483156,-2.884473402679252],[38.45251990648318,-2.896253187679239],[38.4617362144832,-2.899060804679269],[38.477117074483196,-2.938855726679268],[38.488530648483156,-2.939832289679263],[38.492742074483196,-2.95747144967925],[38.518743050483174,-2.977368910679221],[38.5147147304832,-2.985547621679249],[38.48969031648317,-2.981336195679265],[38.45789100048318,-2.992139418679248],[38.409490121483195,-2.929761488679223],[38.3941092614832,-2.928540785679221],[38.36469031648317,-2.90278394967925],[38.31873084348319,-2.834241468679242],[38.2581229334832,-2.759778578679235],[38.18494178148318,-2.705030043679248],[38.163091195483155,-2.695447523679267],[38.160710824483196,-2.684766371679249],[38.15131141048317,-2.701062757679271],[38.127934945483155,-2.701428968679242],[38.115117562483185,-2.715039808679254],[37.97510291448315,-2.789868910679221],[37.937932504483165,-2.773084242679264],[37.9273123864832,-2.752759535679221],[37.9307303554832,-2.725537855679253],[37.9241385584832,-2.709729750679234],[37.901494515483186,-2.702649672679232],[37.89252234748317,-2.676282484679238],[37.87689734748317,-2.658460218679242],[37.849492562483185,-2.605481703679235],[37.59729529648319,-2.313855726679268],[37.6077323084832,-2.310742933679254],[37.613530648483156,-2.300977308679254],[37.62354041448315,-2.306165297679232],[37.63330603948315,-2.297376234679238],[37.6463065274832,-2.301160414679263],[37.654912484483184,-2.290845472679226],[37.668523324483196,-2.291150648679267],[37.678716195483155,-2.266980726679268],[37.6760916834832,-2.230969984679238],[37.70630408648315,-2.197461683679254],[37.72510291448315,-2.192456800679228],[37.70789100048318,-2.183545668679248],[37.69812537548318,-2.166638929679269],[37.66553260148316,-2.157849867679264],[37.621526254483165,-2.163343031679236],[37.591496957483166,-2.154248793679248],[37.56372596148315,-2.128736097679226],[37.54773475048318,-2.128369887679245],[37.532536996483195,-2.107556898679267],[37.4793143394832,-2.086255629679275],[37.47650672248317,-2.093274672679232],[37.463323129483165,-2.087537367679264],[37.464726937483185,-2.08106764067924],[37.38232947648316,-2.02497633267922],[37.365300668483194,-2.024243910679221],[37.35950232848318,-2.013745863679223],[37.31372596148315,-2.008679945679265],[37.28394080448316,-1.996839125679233],[37.265691293483194,-1.960767347679225],[37.25732947648316,-1.959729750679233],[37.23608924248315,-1.937451918679247],[37.191289437483185,-1.936658460679271],[37.170903695483155,-1.91785963267927],[37.154912484483184,-1.887158949679249],[37.161138070483155,-1.884534437679238],[37.163091195483155,-1.859876234679237],[37.14252234748317,-1.839246351679267],[37.148686898483156,-1.83283766067922],[37.14270545348318,-1.813855726679267],[37.153325570483155,-1.801465589679256],[37.159490121483195,-1.774060804679268],[37.197331918483194,-1.722364027679251],[37.192510140483186,-1.655164320679264],[37.17572547248317,-1.619336683679253],[37.232488168483194,-1.591382582679219],[37.25189734748317,-1.594373304679268],[37.253118050483174,-1.637342054679268],[37.27271033648315,-1.670545179679268],[37.265691293483194,-1.682630140679239],[37.28992225048318,-1.700879652679251],[37.28870154648319,-1.715283949679249],[37.33252478948315,-1.701428968679241],[37.35913611748315,-1.708936293679247],[37.37549353948315,-1.706983168679247],[37.4129080894832,-1.689832289679262],[37.3631034024832,-1.591138441679223],[37.3367362144832,-1.561231214679256],[37.381291879483165,-1.521558363679221],[37.4363455894832,-1.533765394679224],[37.464726937483185,-1.520276625679233],[37.4749198084832,-1.523267347679225],[37.487309945483155,-1.517957289679262]]]}},{"type":"Feature","properties":{"name":"Murang'a","code":21},"geometry":{"type":"Polygon","coordinates":[[[36.78552771848319,-0.568555433679253],[36.80414344148317,-0.569776136679254],[36.812932504483165,-0.581983168679246],[36.8609061364832,-0.606458265679239],[36.88550330448316,-0.61243971167926],[36.91351844148317,-0.610364515679239],[36.98950721148315,-0.577466566679223],[36.99854041448315,-0.586377699679249],[37.05072547248317,-0.597669203679234],[37.063115609483184,-0.614453871679248],[37.099309457483166,-0.628675062679238],[37.102727425483174,-0.63856275767927],[37.12073279648319,-0.646863539679262],[37.168449539483156,-0.637115456679228],[37.1804862144832,-0.667737562679238],[37.20111609748317,-0.66517408667926],[37.214543832483166,-0.690076429679268],[37.237493050483174,-0.669751722679225],[37.2437186364832,-0.705335218679241],[37.268743050483174,-0.754651625679233],[37.26190711348317,-0.75275953567922],[37.25671912548318,-0.758863050679227],[37.2678885584832,-0.787427504679217],[37.259099496483195,-0.839368422679231],[37.23334266048317,-0.84065016067922],[37.22632361748315,-0.854566175679227],[37.253118050483174,-0.863660414679262],[37.28210975048318,-0.89814527767925],[37.319341195483155,-0.921338636679254],[37.325505746483195,-0.935376722679225],[37.3154959804832,-0.94325025767927],[37.31732703548317,-0.949353773679266],[37.32971717148319,-0.948865492679263],[37.3433280114832,-0.964063246679248],[37.3552909024832,-0.949842054679268],[37.366521371483195,-0.965283949679249],[37.3467459804832,-0.979077894679224],[37.33350135148316,-0.978833754679274],[37.3389334804832,-0.987683851679267],[37.362309945483155,-0.98994215267925],[37.40674353948315,-1.01447828567922],[37.42133094148317,-1.035657484679237],[37.38794471148315,-1.06043775767927],[37.362493050483174,-1.095044691679223],[37.323918832483166,-1.077039320679264],[37.265508187483185,-1.018750746679248],[37.244695199483196,-1.025464613679221],[37.23193885148316,-1.018872816679223],[37.214543832483166,-1.034375746679248],[37.19232703548317,-1.042737562679238],[37.17792273848317,-1.034680922679231],[37.17334510148316,-1.044629652679251],[37.154912484483184,-1.053235609679237],[37.133916390483186,-1.048841078679234],[37.12512732848318,-1.053357679679268],[37.10809851948317,-1.036573011679254],[37.07050086348317,-1.026136000679233],[37.06268836348317,-1.013135511679254],[37.0613455894832,-1.02815016067922],[37.05151892948316,-1.034131605679252],[37.038091195483155,-1.031262953679234],[37.02393103948315,-1.012769300679227],[36.982121958483155,-0.979566177679262],[36.966496957483166,-0.974439222679225],[36.956731332483166,-0.957471449679249],[36.917119515483186,-0.930554945679264],[36.90833045348318,-0.915052015679239],[36.89471961348317,-0.911939222679225],[36.889104379483165,-0.89814527767925],[36.833318246483195,-0.874463636679254],[36.773503793483194,-0.834180433679253],[36.75189734748317,-0.833081800679227],[36.723088754483165,-0.80634840267925],[36.72089148848317,-0.781262953679234],[36.73450232848318,-0.780164320679264],[36.719731820483155,-0.756848890679239],[36.70789100048318,-0.699170668679246],[36.7092948084832,-0.586865980679252],[36.733525765483186,-0.567334730679252],[36.78552771848319,-0.568555433679253]]]}},{"type":"Feature","properties":{"name":"Nairobi","code":47},"geometry":{"type":"Polygon","coordinates":[[[36.90458259248316,-1.160707895679255],[36.94153357848318,-1.174573500679233],[36.91351844148317,-1.207959730679252],[36.931706918483194,-1.223340589679256],[36.964543832483166,-1.228833754679274],[36.988713754483165,-1.224073011679254],[37.004521859483184,-1.236646254679274],[37.03833533648315,-1.213147718679241],[37.061101449483196,-1.206861097679225],[37.08093787548318,-1.237256605679252],[37.091496957483166,-1.237866957679219],[37.0955252774832,-1.244763929679268],[37.08752967148319,-1.248975355679252],[37.10388709348319,-1.264844496679248],[37.10168982848318,-1.274182875679233],[37.07690955448316,-1.28626783667926],[37.076726449483196,-1.302442152679251],[37.026494515483186,-1.291944105679252],[37.00269080448316,-1.300733168679247],[36.99548865648318,-1.281446058679253],[36.974309457483166,-1.289563734679237],[36.98431922248317,-1.314832289679262],[36.96692420348318,-1.353162367679263],[36.93451453548317,-1.338758070679264],[36.9072928554832,-1.363355238679221],[36.923894418483194,-1.393933851679267],[36.945745004483165,-1.408765394679224],[36.96112586348317,-1.44447096167926],[36.955510629483165,-1.437635023679266],[36.8928885584832,-1.415662367679263],[36.89429236748315,-1.411145765679239],[36.885320199483196,-1.407178480679252],[36.87109900748316,-1.40705641067922],[36.844304574483196,-1.387647230679252],[36.8198905114832,-1.381543714679256],[36.80908728948315,-1.388135511679254],[36.773137582483166,-1.388745863679221],[36.734929574483196,-1.378430922679231],[36.7027030114832,-1.352246839679256],[36.69550086348317,-1.352979261679254],[36.6804862144832,-1.32893141067922],[36.664128793483194,-1.319654066679223],[36.681706918483194,-1.298047621679248],[36.69672156648317,-1.260633070679264],[36.719731820483155,-1.263745863679221],[36.73114539448317,-1.234754164679262],[36.7459159024832,-1.23713453567922],[36.75671912548318,-1.219983656679235],[36.77893592148319,-1.226758558679253],[36.79169226948317,-1.191480238679221],[36.835088265483186,-1.216077406679235],[36.83289100048318,-1.208936293679247],[36.85028601948317,-1.212964613679221],[36.863896859483184,-1.190442640679239],[36.87854529648319,-1.196363050679227],[36.896916879483165,-1.192273695679264],[36.889104379483165,-1.174329359679237],[36.90458259248316,-1.160707895679255]]]}},{"type":"Feature","properties":{"name":"Nyandarua","code":18},"geometry":{"type":"Polygon","coordinates":[[[36.504320681483186,0.094996587320734],[36.52411414448317,0.04802171432078],[36.57849646848319,0.069628160320744],[36.6052909024832,0.003038804320736],[36.637700570483155,0.014452378320752],[36.65112830448316,-0.016065199679249],[36.58289100048318,-0.022168714679256],[36.56268836348317,-0.043042738679221],[36.551946175483174,-0.069531996679248],[36.56030799248315,-0.076245863679221],[36.5557303554832,-0.090344984679237],[36.56250525748316,-0.088941175679227],[36.5733084804832,-0.103650648679266],[36.63568641048317,-0.106641371679248],[36.65692664448317,-0.15315016067922],[36.69092322648316,-0.174268324679249],[36.68353797248317,-0.176465589679256],[36.68451453548317,-0.184949476679267],[36.616338265483186,-0.309583265679239],[36.609929574483196,-0.334973890679239],[36.616887582483166,-0.356336195679264],[36.60474158648315,-0.371472914679262],[36.630742562483185,-0.386365492679263],[36.62390662548318,-0.401380140679239],[36.65131141048317,-0.43525465267925],[36.65210486748315,-0.459546644679224],[36.662541879483165,-0.463147718679241],[36.667119515483186,-0.472669203679234],[36.65869666448315,-0.512647230679252],[36.6694998864832,-0.54462965267925],[36.671086800483174,-0.572766859679237],[36.70874549248315,-0.630933363679221],[36.70770789448317,-0.698743422679231],[36.719731820483155,-0.756848890679239],[36.73633338248316,-0.780164320679264],[36.72089148848317,-0.781262953679234],[36.72192908648315,-0.805738050679227],[36.686711800483174,-0.764173109679237],[36.672124398483156,-0.75947340267925],[36.6629080894832,-0.767774183679253],[36.6507010584832,-0.768445570679264],[36.64648963248316,-0.773084242679263],[36.673528207483166,-0.77845533667926],[36.622930062483185,-0.831372816679223],[36.589543832483166,-0.829053480679252],[36.6011405114832,-0.86604078567922],[36.5908866054832,-0.887464125679233],[36.566106332483166,-0.903760511679254],[36.5711112144832,-0.910230238679221],[36.556706918483194,-0.919934828679234],[36.54492713248316,-0.908338148679266],[36.55609656648317,-0.872632582679219],[36.55310584348319,-0.855054457679219],[36.56268836348317,-0.842237074679249],[36.53272010148316,-0.730237562679238],[36.52148963248316,-0.710950453679234],[36.54511023848317,-0.697461683679253],[36.521916879483165,-0.653333265679239],[36.52710486748315,-0.646863539679262],[36.5178885584832,-0.633130629679217],[36.520085824483196,-0.626233656679235],[36.51190711348317,-0.615552504679217],[36.50732947648316,-0.622266371679248],[36.46869422248317,-0.626966078679234],[36.45648719148317,-0.611157972679225],[36.45209266048317,-0.566052992679263],[36.40430213248316,-0.572278578679234],[36.40692664448317,-0.553357679679268],[36.40131141048317,-0.534375746679248],[36.40588904648319,-0.52314527767925],[36.38690711348317,-0.457349379679217],[36.38611365648318,-0.427259047679231],[36.37830115648318,-0.404431898679266],[36.3674979334832,-0.397779066679223],[36.36169959348319,-0.382337172679231],[36.3342948084832,-0.38947828567922],[36.3154959804832,-0.386243422679231],[36.311528695483155,-0.368665297679231],[36.29370642948316,-0.373731214679256],[36.276494515483186,-0.392835218679241],[36.2634940274832,-0.343152601679267],[36.235539925483174,-0.344251234679237],[36.230535043483194,-0.351331312679238],[36.2261405114832,-0.34736402767925],[36.2136893394832,-0.271253187679238],[36.24548865648318,-0.25556715267925],[36.244695199483196,-0.248059828679234],[36.224309457483166,-0.209851820679264],[36.2127127774832,-0.203565199679249],[36.20154334348319,-0.136548597679225],[36.221318734483184,-0.105664808679253],[36.229131234483184,-0.106946547679231],[36.2283377774832,-0.114881117679263],[36.248113168483194,-0.118360121679248],[36.25214148848317,-0.084363539679262],[36.24731971148315,-0.06025465267925],[36.25330115648318,-0.033948500679233],[36.257927553483164,-0.019951763679219],[36.2678885584832,-0.020459730679252],[36.276494515483186,0.00084153832074],[36.29248572648316,0.010668199320773],[36.295903695483155,0.00224534732075],[36.30212928148318,0.004442613320746],[36.30483650748317,0.015084255320742],[36.34412146848319,0.029467027320775],[36.35291053148318,0.018053452320769],[36.365117562483185,0.019274156320759],[36.42590857848318,0.042833726320734],[36.40393592148319,0.058458726320734],[36.423711312483185,0.08287278832074],[36.44653846148315,0.092821519320748],[36.46631385148316,0.137438218320765],[36.504320681483186,0.094996587320734]]]}},{"type":"Feature","properties":{"name":"Nyeri","code":19},"geometry":{"type":"Polygon","coordinates":[[[37.07849646848319,-0.000379164679262],[37.11328650748316,-0.036573011679254],[37.120122445483155,-0.019727308679253],[37.140691293483194,-0.041883070679264],[37.30853797248317,-0.15205152767925],[37.20038707848317,-0.438815379679229],[37.176790601483155,-0.443254716679237],[37.17743050648317,-0.482448863679226],[37.16343259648317,-0.494767023679233],[37.171111450483174,-0.51432410367926],[37.16227276948319,-0.524482586679258],[37.14631515348315,-0.528561977679263],[37.150371423483186,-0.556213700679225],[37.145391177483184,-0.57069939067924],[37.161321175483174,-0.593762953679234],[37.17888775548317,-0.602830824679247],[37.17450476948317,-0.632764418679246],[37.12073252048315,-0.646868172679265],[37.1030936364832,-0.639051039679262],[37.099309457483166,-0.628675062679238],[37.059697640483186,-0.611768324679249],[37.05072547248317,-0.597669203679234],[36.9971366054832,-0.58564527767925],[36.9871268394832,-0.576856214679256],[36.914311898483156,-0.610364515679239],[36.86273719148317,-0.607373793679246],[36.81409217148319,-0.582471449679249],[36.81091834348319,-0.571363050679227],[36.7781424644832,-0.567334730679252],[36.725896371483195,-0.570935804679268],[36.7092948084832,-0.586865980679252],[36.70770789448317,-0.626966078679234],[36.68408728948315,-0.596570570679264],[36.679936898483156,-0.578565199679249],[36.671086800483174,-0.572644789679262],[36.6694998864832,-0.544568617679263],[36.659307015483186,-0.516858656679235],[36.66809607848318,-0.479138929679268],[36.6651053554832,-0.466443617679263],[36.65210486748315,-0.459546644679224],[36.65131141048317,-0.43525465267925],[36.62390662548318,-0.401380140679239],[36.630742562483185,-0.386548597679225],[36.60474158648315,-0.371472914679262],[36.616887582483166,-0.356336195679264],[36.609929574483196,-0.334973890679239],[36.61591101948317,-0.310132582679219],[36.68451453548317,-0.184949476679267],[36.68353797248317,-0.176465589679256],[36.69092322648316,-0.174268324679249],[36.66052771848319,-0.15223463267927],[36.75232459348319,-0.120557386679254],[36.76611853948315,-0.109143812679238],[36.7691092614832,-0.114148695679264],[36.83114699148319,-0.104043694679265],[36.832097543483194,-0.134778578679234],[36.861943734483184,-0.144361097679225],[36.859946097483196,-0.152610827679271],[36.871526254483165,-0.173963148679266],[36.8655448084832,-0.186841566679223],[36.84081392048318,-0.198382709679268],[36.857305062483185,-0.254956800679227],[36.8721366054832,-0.248181898679266],[36.879521859483184,-0.258130629679217],[36.9881034024832,-0.295484144679224],[36.99890662548318,-0.271436293679246],[36.991521371483195,-0.25575025767927],[37.0125174644832,-0.239636976679267],[37.009099496483195,-0.22346266067922],[37.01971961348317,-0.175366957679219],[37.00793982848318,-0.14924391067922],[36.98669959348319,-0.133557875679233],[36.9789890734832,-0.071370739679255],[37.02631141048317,-0.048963148679266],[37.0545096524832,-0.007459242679263],[37.06873084348319,-0.002332289679262],[37.078629973483196,0.01038143132075],[37.07849646848319,-0.000379164679262]]]}}]}